{
  "type": "FeatureCollection",
  "features": [
    {
      "type": "Feature",
      "properties": {
        "norad_id": 66446,
        "name": "STARLINK-34986",
        "group": "last-30-days",
        "lat": -0.49192332135486283,
        "lon": -110.25898498304166,
        "alt_km": 414.23609253195264,
        "timestamp": "2025-12-08T23:34:02.738716+00:00",
        "meta_object_name": "STARLINK-34986",
        "meta_object_id": "2025-259AA",
        "meta_epoch": "2025-12-08T13:31:01.099488",
        "meta_mean_motion": 15.50648703,
        "meta_eccentricity": 0.00012145,
        "meta_inclination": 42.9987,
        "meta_ra_of_asc_node": 71.6636,
        "meta_arg_of_pericenter": 255.1355,
        "meta_mean_anomaly": 104.9371,
        "meta_ephemeris_type": 0,
        "meta_classification_type": "U",
        "meta_norad_cat_id": 66446,
        "meta_element_set_no": 999,
        "meta_rev_at_epoch": 552,
        "meta_bstar": 0.0017593623,
        "meta_mean_motion_dot": 0.00104519,
        "meta_mean_motion_ddot": 0,
        "tle_line1": "1 66446U 25259AA  25342.56320717  .00104519  00000+0  17594-2 0  9993",
        "tle_line2": "2 66446  42.9987  71.6636 0001214 255.1355 104.9371 15.50648703  5526"
      },
      "geometry": {
        "type": "Point",
        "coordinates": [
          -110.25898498304166,
          -0.49192332135486283
        ]
      }
    },
    {
      "type": "Feature",
      "properties": {
        "norad_id": 66447,
        "name": "STARLINK-34851",
        "group": "last-30-days",
        "lat": -2.982668915735956,
        "lon": -107.59070031318987,
        "alt_km": 414.93648832204144,
        "timestamp": "2025-12-08T23:34:02.738726+00:00",
        "meta_object_name": "STARLINK-34851",
        "meta_object_id": "2025-259AB",
        "meta_epoch": "2025-12-08T15:02:47.858784",
        "meta_mean_motion": 15.50594628,
        "meta_eccentricity": 0.00017685,
        "meta_inclination": 43.0013,
        "meta_ra_of_asc_node": 71.2813,
        "meta_arg_of_pericenter": 267.3813,
        "meta_mean_anomaly": 92.6845,
        "meta_ephemeris_type": 0,
        "meta_classification_type": "U",
        "meta_norad_cat_id": 66447,
        "meta_element_set_no": 999,
        "meta_rev_at_epoch": 542,
        "meta_bstar": 0.00090929754,
        "meta_mean_motion_dot": 0.00053397,
        "meta_mean_motion_ddot": 0,
        "tle_line1": "1 66447U 25259AB  25342.62694281  .00053397  00000+0  90930-3 0  9994",
        "tle_line2": "2 66447  43.0013  71.2813 0001768 267.3813  92.6845 15.50594628  5424"
      },
      "geometry": {
        "type": "Point",
        "coordinates": [
          -107.59070031318987,
          -2.982668915735956
        ]
      }
    },
    {
      "type": "Feature",
      "properties": {
        "norad_id": 66448,
        "name": "STARLINK-35355",
        "group": "last-30-days",
        "lat": -4.330414804780172,
        "lon": -106.13975173965709,
        "alt_km": 415.06490733379724,
        "timestamp": "2025-12-08T23:34:02.738738+00:00",
        "meta_object_name": "STARLINK-35355",
        "meta_object_id": "2025-259AC",
        "meta_epoch": "2025-12-08T15:02:18.094848",
        "meta_mean_motion": 15.50621652,
        "meta_eccentricity": 0.00022829,
        "meta_inclination": 43.001,
        "meta_ra_of_asc_node": 71.2787,
        "meta_arg_of_pericenter": 277.6667,
        "meta_mean_anomaly": 82.3933,
        "meta_ephemeris_type": 0,
        "meta_classification_type": "U",
        "meta_norad_cat_id": 66448,
        "meta_element_set_no": 999,
        "meta_rev_at_epoch": 553,
        "meta_bstar": 0.0021526826,
        "meta_mean_motion_dot": 0.00128234,
        "meta_mean_motion_ddot": 0,
        "tle_line1": "1 66448U 25259AC  25342.62659832  .00128234  00000+0  21527-2 0  9996",
        "tle_line2": "2 66448  43.0010  71.2787 0002282 277.6667  82.3933 15.50621652  5539"
      },
      "geometry": {
        "type": "Point",
        "coordinates": [
          -106.13975173965709,
          -4.330414804780172
        ]
      }
    },
    {
      "type": "Feature",
      "properties": {
        "norad_id": 66449,
        "name": "STARLINK-34720",
        "group": "last-30-days",
        "lat": -5.6409741149188894,
        "lon": -104.72176330682234,
        "alt_km": 415.2231290291584,
        "timestamp": "2025-12-08T23:34:02.738749+00:00",
        "meta_object_name": "STARLINK-34720",
        "meta_object_id": "2025-259AD",
        "meta_epoch": "2025-12-08T15:01:48.650592",
        "meta_mean_motion": 15.50622403,
        "meta_eccentricity": 0.0001615,
        "meta_inclination": 43.0016,
        "meta_ra_of_asc_node": 71.2754,
        "meta_arg_of_pericenter": 283.7215,
        "meta_mean_anomaly": 76.3465,
        "meta_ephemeris_type": 0,
        "meta_classification_type": "U",
        "meta_norad_cat_id": 66449,
        "meta_element_set_no": 999,
        "meta_rev_at_epoch": 542,
        "meta_bstar": 0.0025080734,
        "meta_mean_motion_dot": 0.00149877,
        "meta_mean_motion_ddot": 0,
        "tle_line1": "1 66449U 25259AD  25342.62625753  .00149877  00000+0  25081-2 0  9997",
        "tle_line2": "2 66449  43.0016  71.2754 0001615 283.7215  76.3465 15.50622403  5422"
      },
      "geometry": {
        "type": "Point",
        "coordinates": [
          -104.72176330682234,
          -5.6409741149188894
        ]
      }
    },
    {
      "type": "Feature",
      "properties": {
        "norad_id": 66450,
        "name": "STARLINK-35334",
        "group": "last-30-days",
        "lat": -6.900142760803971,
        "lon": -103.35060637445777,
        "alt_km": 415.285270104695,
        "timestamp": "2025-12-08T23:34:02.738759+00:00",
        "meta_object_name": "STARLINK-35334",
        "meta_object_id": "2025-259AE",
        "meta_epoch": "2025-12-08T13:28:33.568896",
        "meta_mean_motion": 15.50594721,
        "meta_eccentricity": 0.00026829,
        "meta_inclination": 43.0014,
        "meta_ra_of_asc_node": 71.6481,
        "meta_arg_of_pericenter": 275.1369,
        "meta_mean_anomaly": 84.9185,
        "meta_ephemeris_type": 0,
        "meta_classification_type": "U",
        "meta_norad_cat_id": 66450,
        "meta_element_set_no": 999,
        "meta_rev_at_epoch": 552,
        "meta_bstar": 0.0017912563,
        "meta_mean_motion_dot": 0.00106246,
        "meta_mean_motion_ddot": 0,
        "tle_line1": "1 66450U 25259AE  25342.56149964  .00106246  00000+0  17913-2 0  9995",
        "tle_line2": "2 66450  43.0014  71.6481 0002682 275.1369  84.9185 15.50594721  5529"
      },
      "geometry": {
        "type": "Point",
        "coordinates": [
          -103.35060637445777,
          -6.900142760803971
        ]
      }
    },
    {
      "type": "Feature",
      "properties": {
        "norad_id": 66454,
        "name": "VIASAT-3 F2",
        "group": "last-30-days",
        "lat": 5.4874303037057315,
        "lon": 32.779330823962965,
        "alt_km": 16206.11697203611,
        "timestamp": "2025-12-08T23:34:02.738775+00:00",
        "meta_object_name": "VIASAT-3 F2",
        "meta_object_id": "2025-261A",
        "meta_epoch": "2025-12-04T21:51:56.064384",
        "meta_mean_motion": 2.28030055,
        "meta_eccentricity": 0.23396731,
        "meta_inclination": 5.5696,
        "meta_ra_of_asc_node": 293.0418,
        "meta_arg_of_pericenter": 184.3884,
        "meta_mean_anomaly": 199.1368,
        "meta_ephemeris_type": 0,
        "meta_classification_type": "U",
        "meta_norad_cat_id": 66454,
        "meta_element_set_no": 999,
        "meta_rev_at_epoch": 47,
        "meta_bstar": 0,
        "meta_mean_motion_dot": -6.1e-07,
        "meta_mean_motion_ddot": 0,
        "tle_line1": "1 66454U 25261A   25338.91106556 -.00000061  00000+0  00000+0 0  9991",
        "tle_line2": "2 66454   5.5696 293.0418 2339673 184.3884 199.1368  2.28030055   477"
      },
      "geometry": {
        "type": "Point",
        "coordinates": [
          32.779330823962965,
          5.4874303037057315
        ]
      }
    },
    {
      "type": "Feature",
      "properties": {
        "norad_id": 66455,
        "name": "ATLAS 5 CENTAUR R/B",
        "group": "last-30-days",
        "lat": 6.12398268616279,
        "lon": 28.19047815914491,
        "alt_km": 16611.8821805371,
        "timestamp": "2025-12-08T23:34:02.738802+00:00",
        "meta_object_name": "ATLAS 5 CENTAUR R/B",
        "meta_object_id": "2025-261B",
        "meta_epoch": "2025-12-08T10:35:24.563328",
        "meta_mean_motion": 2.28259479,
        "meta_eccentricity": 0.2329527,
        "meta_inclination": 6.1512,
        "meta_ra_of_asc_node": 292.0465,
        "meta_arg_of_pericenter": 185.62,
        "meta_mean_anomaly": 212.524,
        "meta_ephemeris_type": 0,
        "meta_classification_type": "U",
        "meta_norad_cat_id": 66455,
        "meta_element_set_no": 999,
        "meta_rev_at_epoch": 55,
        "meta_bstar": 0,
        "meta_mean_motion_dot": -7.9e-07,
        "meta_mean_motion_ddot": 0,
        "tle_line1": "1 66455U 25261B   25342.44125652 -.00000079  00000+0  00000+0 0  9992",
        "tle_line2": "2 66455   6.1512 292.0465 2329527 185.6200 212.5240  2.28259479   557"
      },
      "geometry": {
        "type": "Point",
        "coordinates": [
          28.19047815914491,
          6.12398268616279
        ]
      }
    }
  ]
}